     2.100          NAVIGATION                              RINEX VERSION / TYPE
fic2rin                                 02/21/2016 00:06:23 PGM / RUN BY / DATE
                                                            END OF HEADER
25 16  2 20 22  0  0.0 -.120592769235D-03 -.670752342558D-11  .000000000000D+00
     .950000000000D+02  .125875000000D+03  .411588572888D-08  .211061023073D+01
     .640377402306D-05  .516670779325D-02  .741705298424D-05  .515355742455D+04
     .597600000000D+06 -.894069671631D-07 -.250772699440D+01 -.745058059692D-07
     .978788703735D+00  .245218750000D+03  .698613085045D+00 -.795175979414D-08
     .324299222650D-09  .100000000000D+01  .188400000000D+04  .000000000000D+00
     .240000000000D+01  .000000000000D+00  .558793544769D-08  .950000000000D+02
     .590406000000D+06  .400000000000D+01
26 16  2 20 22  0  0.0 -.262645538896D-03 -.154614099301D-10  .000000000000D+00
     .380000000000D+02  .123281250000D+03  .455161816459D-08  .151306096865D+01
     .662356615067D-05  .866204383783D-03  .738352537155D-05  .515371713448D+04
     .597600000000D+06  .689178705215D-07 -.251499900803D+01 -.409781932831D-07
     .960802430238D+00  .233718750000D+03 -.968732385421D-01 -.822069956799D-08
     .264653881039D-09  .100000000000D+01  .188400000000D+04  .000000000000D+00
     .240000000000D+01  .000000000000D+00  .698491930962D-08  .380000000000D+02
     .590406000000D+06  .400000000000D+01
27 16  2 20 22  0  0.0  .647301785648D-04  .363797880709D-11  .000000000000D+00
     .630000000000D+02 -.374687500000D+02  .464662212189D-08 -.316700582570D+00
    -.210106372833D-05  .324073643424D-02  .153295695782D-05  .515363045692D+04
     .597600000000D+06  .894069671631D-07 -.146549549223D+01  .819563865662D-07
     .969957539813D+00  .354468750000D+03  .204179128149D+00 -.849071081504D-08
    -.262868092368D-09  .100000000000D+01  .188400000000D+04  .000000000000D+00
     .240000000000D+01  .000000000000D+00  .139698386192D-08  .630000000000D+02
     .590406000000D+06  .400000000000D+01
28 16  2 20 22  0  0.0  .503822229803D-03  .261479726760D-11  .000000000000D+00
     .410000000000D+02  .964375000000D+02  .400730977768D-08  .391881028149D+00
     .517256557941D-05  .199243423995D-01  .706128776073D-05  .515362670708D+04
     .597600000000D+06 -.251457095146D-06 -.243416472201D+01 -.409781932831D-07
     .989637822708D+00  .263968750000D+03 -.162159712116D+01 -.826748723117D-08
     .178221709364D-09  .100000000000D+01  .188400000000D+04  .000000000000D+00
     .240000000000D+01  .000000000000D+00 -.107102096081D-07  .410000000000D+02
     .590406000000D+06  .400000000000D+01
29 16  2 20 22  0  0.0  .654610805213D-03  .682121026330D-12  .000000000000D+00
     .420000000000D+02 -.506562500000D+02  .445447126089D-08  .219142200244D+01
    -.268407166004D-05  .105985871051D-02  .203587114811D-05  .515361110878D+04
     .597600000000D+06 -.409781932831D-07 -.140649252727D+01  .428408384323D-07
     .975961345370D+00  .347562500000D+03 -.542492656151D+00 -.832998983466D-08
    -.280011663610D-09  .100000000000D+01  .188400000000D+04  .000000000000D+00
     .240000000000D+01  .000000000000D+00 -.102445483208D-07  .420000000000D+02
     .590406000000D+06  .400000000000D+01
30 16  2 20 22  0  0.0  .986447557807D-04  .420641299570D-11  .000000000000D+00
     .150000000000D+02  .116250000000D+02  .455804700381D-08 -.310437178982D+01
     .663101673126D-06  .171780737583D-02  .112615525723D-04  .515364115715D+04
     .597600000000D+06 -.298023223877D-07  .279730697026D+01  .149011611938D-07
     .953399991611D+00  .161375000000D+03  .300777554750D+01 -.791568686299D-08
    -.341085636157D-09  .100000000000D+01  .188400000000D+04  .000000000000D+00
     .240000000000D+01  .000000000000D+00  .325962901115D-08  .150000000000D+02
     .590406000000D+06  .400000000000D+01
32 16  2 20 22  0  0.0  .574206933379D-05  .613908923697D-11  .000000000000D+00
     .116000000000D+03 -.150937500000D+02  .492734810097D-08 -.113428338990D+01
    -.931322574615D-06  .170104438439D-03  .458955764771D-05  .517914710808D+04
     .597600000000D+06  .130385160446D-07  .167460747188D+01  .409781932831D-07
     .959752413472D+00  .282250000000D+03 -.504551624143D-01 -.809855162290D-08
    -.131434046184D-09  .100000000000D+01  .188400000000D+04  .000000000000D+00
     .240000000000D+01  .630000000000D+02  .279396772385D-08  .116000000000D+03
     .590406000000D+06  .400000000000D+01
19 16  2 20 21 59 44.0 -.524925999343D-03 -.113686837722D-12  .000000000000D+00
     .000000000000D+00 -.610312500000D+02  .446447167745D-08  .285590260909D+01
    -.337883830070D-05  .112557127140D-01  .207684934139D-05  .515519703102D+04
     .597584000000D+06 -.558793544769D-07 -.136706888338D+01 -.154599547386D-06
     .972118433663D+00  .344625000000D+03  .682711487365D+00 -.815105380982D-08
    -.301083969927D-09  .100000000000D+01  .188400000000D+04  .000000000000D+00
     .240000000000D+01  .000000000000D+00 -.153668224812D-07  .000000000000D+00
     .593046000000D+06  .400000000000D+01
27 16  2 20 21 59 28.0  .647287815809D-04  .363797880709D-11  .000000000000D+00
     .120000000000D+02 -.374687500000D+02  .464662212189D-08 -.321368950192D+00
    -.210106372833D-05  .324074004311D-02  .153295695782D-05  .515363045311D+04
     .597568000000D+06  .894069671631D-07 -.146549521574D+01  .819563865662D-07
     .969957529573D+00  .354468750000D+03  .204179916662D+00 -.849071081504D-08
    -.262868092368D-09  .100000000000D+01  .188400000000D+04  .000000000000D+00
     .240000000000D+01  .000000000000D+00  .139698386192D-08  .120000000000D+02
     .593856000000D+06  .400000000000D+01
27 16  2 20 23 59 28.0  .647548586130D-04  .363797880709D-11  .000000000000D+00
     .190000000000D+02 -.361875000000D+02  .474698344520D-08  .728841434463D+00
    -.178441405296D-05  .324121187441D-02  .113062560558D-05  .515363133049D+04
     .604768000000D+06  .204890966415D-07 -.146555669048D+01  .540167093277D-07
     .969955434674D+00  .357781250000D+03  .204177836392D+00 -.854392731744D-08
    -.258225041824D-09  .100000000000D+01  .188400000000D+04  .000000000000D+00
     .240000000000D+01  .000000000000D+00  .139698386192D-08  .190000000000D+02
     .597606000000D+06  .400000000000D+01
19 16  2 20 23 59 44.0 -.524926465005D-03 -.113686837722D-12  .000000000000D+00
     .300000000000D+01 -.550937500000D+02  .455483258420D-08 -.237803199794D+01
    -.285729765892D-05  .112549234182D-01  .200420618057D-05  .515519847298D+04
     .604784000000D+06  .163912773132D-06 -.136712876793D+01 -.173225998878D-06
     .972116340228D+00  .345656250000D+03  .682710817349D+00 -.825891544555D-08
    -.159292349451D-09  .100000000000D+01  .188400000000D+04  .000000000000D+00
     .240000000000D+01  .000000000000D+00 -.153668224812D-07  .300000000000D+01
     .597606000000D+06  .400000000000D+01
 1 16  2 21  0  0  0.0  .122934579849D-04  .102318153949D-11  .000000000000D+00
     .950000000000D+02 -.107312500000D+03  .405338312539D-08 -.144383190057D+01
    -.553205609322D-05  .508236698806D-02  .107679516077D-04  .515366066360D+04
     .000000000000D+00  .689178705215D-07 -.527959631501D+00 -.156462192535D-06
     .964131917679D+00  .174812500000D+03  .463065052175D+00 -.778460997454D-08
    -.199651173416D-09  .100000000000D+01  .188500000000D+04  .000000000000D+00
     .240000000000D+01  .000000000000D+00  .512227416039D-08  .950000000000D+02
     .597606000000D+06  .400000000000D+01
 2 16  2 21  0  0  0.0  .599521677941D-03 -.113686837722D-12  .000000000000D+00
     .560000000000D+02 -.894062500000D+02  .479484258158D-08 -.976508105151D+00
    -.453367829323D-05  .154621166876D-01  .955164432526D-05  .515372981453D+04
     .000000000000D+00  .163912773132D-06 -.571365107262D+00  .363215804100D-06
     .942833433803D+00  .186875000000D+03 -.216211596581D+01 -.831213194795D-08
    -.247867467532D-09  .100000000000D+01  .188500000000D+04  .000000000000D+00
     .240000000000D+01  .000000000000D+00 -.204890966415D-07  .560000000000D+02
     .597606000000D+06  .400000000000D+01
 3 16  2 21  0  0  0.0 -.271084718406D-04 -.466116034659D-11  .000000000000D+00
     .260000000000D+02  .325937500000D+02  .446482883519D-08  .111052873679D+01
     .177510082722D-05  .268006813712D-03  .938773155212D-05  .515376105309D+04
     .000000000000D+00 -.372529029846D-08  .512720264651D+00  .335276126862D-07
     .959516314586D+00  .198062500000D+03  .311928697987D+01 -.793961643118D-08
     .625383192577D-09  .100000000000D+01  .188500000000D+04  .000000000000D+00
     .240000000000D+01  .000000000000D+00  .186264514923D-08  .260000000000D+02
     .597606000000D+06  .400000000000D+01
 4 16  2 21  0  0  0.0 -.250702258199D-03 -.909494701773D-12  .000000000000D+00
     .960000000000D+02  .124125000000D+03  .540808241120D-08  .175614682883D+01
     .637583434582D-05  .813088589348D-02  .760331749916D-05  .515361781883D+04
     .000000000000D+00 -.195577740669D-06 -.260700368885D+01 -.428408384323D-07
     .983546446875D+00  .246281250000D+03  .855246442276D+00 -.798568977889D-08
     .350728894981D-09  .100000000000D+01  .188500000000D+04  .000000000000D+00
     .340000000000D+01  .630000000000D+02 -.190921127796D-07  .960000000000D+02
     .597606000000D+06  .400000000000D+01
 5 16  2 21  0  0  0.0 -.144258141518D-03  .341060513165D-11  .000000000000D+00
     .390000000000D+02  .383125000000D+02  .481412909923D-08  .148442046320D+01
     .205263495445D-05  .458165188320D-02  .927411019802D-05  .515373650169D+04
     .000000000000D+00 -.670552253723D-07  .502102902624D+00  .223517417908D-07
     .946631126712D+00  .194312500000D+03  .479787125997D+00 -.816926885427D-08
     .527164815673D-09  .100000000000D+01  .188500000000D+04  .000000000000D+00
     .240000000000D+01  .000000000000D+00 -.107102096081D-07  .390000000000D+02
     .597606000000D+06  .400000000000D+01
